[{"OBJECT_NAME":"GALAPAGOS-UTE-SWSU","OBJECT_ID":"2025-313AH","EPOCH":"2026-03-09T22:34:20.965152","MEAN_MOTION":15.21376357,"ECCENTRICITY":0.00141435,"INCLINATION":97.3994,"RA_OF_ASC_NODE":145.1857,"ARG_OF_PERICENTER":358.5114,"MEAN_ANOMALY":1.6077,"EPHEMERIS_TYPE":0,"CLASSIFICATION_TYPE":"U","NORAD_CAT_ID":67279,"ELEMENT_SET_NO":999,"REV_AT_EPOCH":1085,"BSTAR":0.00042377017,"MEAN_MOTION_DOT":9.461e-5,"MEAN_MOTION_DDOT":0},{"OBJECT_NAME":"FALCON 9 DEB","OBJECT_ID":"2021-041BK","EPOCH":"2026-03-09T13:04:15.781440","MEAN_MOTION":15.14721468,"ECCENTRICITY":0.00108412,"INCLINATION":53.0211,"RA_OF_ASC_NODE":167.2269,"ARG_OF_PERICENTER":177.7272,"MEAN_ANOMALY":182.3771,"EPHEMERIS_TYPE":0,"CLASSIFICATION_TYPE":"U","NORAD_CAT_ID":48610,"ELEMENT_SET_NO":999,"REV_AT_EPOCH":26460,"BSTAR":0.00039810006,"MEAN_MOTION_DOT":7.171e-5,"MEAN_MOTION_DDOT":0}]
